     2.100          NAVIGATION                              RINEX VERSION / TYPE
fic2rin                                 09/30/2011 00:09:56 PGM / RUN BY / DATE
                                                            END OF HEADER
10 11  9 29 16  0  0.0 -.147223472595D-04 -.125055521494D-11  .000000000000D+00
     .104000000000D+03  .134906250000D+03  .460304887832D-08 -.305485546386D+01
     .692717730999D-05  .104959313758D-01  .815279781818D-05  .515364059258D+04
     .403200000000D+06  .372529029846D-08 -.205805693072D+01 -.113621354103D-06
     .947908508743D+00  .214656250000D+03  .706560181239D+00 -.809212278368D-08
     .364300888880D-09  .100000000000D+01  .165500000000D+04  .000000000000D+00
     .240000000000D+01  .000000000000D+00 -.232830643654D-08  .104000000000D+03
     .396006000000D+06  .400000000000D+01
12 11  9 29 16  0  0.0  .254097394645D-04  .238742359215D-11  .000000000000D+00
     .530000000000D+02  .366562500000D+02  .440125475850D-08 -.766128024216D+00
     .188872218132D-05  .356134946924D-02  .980868935585D-05  .515365526199D+04
     .403200000000D+06  .149011611938D-07  .108147195947D+01 -.577419996262D-07
     .976562998226D+00  .200593750000D+03 -.696091224936D-01 -.793818780024D-08
     .713243995190D-09  .100000000000D+01  .165500000000D+04  .000000000000D+00
     .240000000000D+01  .000000000000D+00 -.121071934700D-07  .530000000000D+02
     .396006000000D+06  .400000000000D+01
13 11  9 29 16  0  0.0  .249129254371D-03 -.193267624127D-11  .000000000000D+00
     .121000000000D+03 -.356250000000D+02  .416481633846D-08  .187861436630D+01
    -.188499689102D-05  .460263446439D-02  .129640102386D-05  .515377031517D+04
     .403200000000D+06  .689178705215D-07 -.946336878295D+00  .577419996262D-07
     .988173928862D+00  .367593750000D+03  .195399579488D+01 -.825891544555D-08
    -.126433837905D-09  .100000000000D+01  .165500000000D+04  .000000000000D+00
     .340000000000D+01  .000000000000D+00 -.111758708954D-07  .121000000000D+03
     .396006000000D+06  .400000000000D+01
14 11  9 29 16  0  0.0  .174525193870D-03  .181898940355D-11  .000000000000D+00
     .340000000000D+02 -.477500000000D+02  .432625163432D-08  .192535870534D+01
    -.242888927460D-05  .627656246070D-02  .157766044140D-05  .515371533966D+04
     .403200000000D+06 -.124797224998D-06 -.971387283299D+00 -.203028321266D-06
     .981122755884D+00  .357687500000D+03 -.208731237232D+01 -.836070539980D-08
    -.113933317209D-09  .100000000000D+01  .165500000000D+04  .000000000000D+00
     .240000000000D+01  .000000000000D+00 -.884756445885D-08  .340000000000D+02
     .396006000000D+06  .400000000000D+01
15 11  9 29 16  0  0.0 -.104402657598D-03  .147792889038D-11  .000000000000D+00
     .200000000000D+02 -.217812500000D+02  .505485341208D-08  .161325836961D+01
    -.110082328320D-05  .370435114019D-02  .931322574615D-06  .515369067192D+04
     .403200000000D+06  .465661287308D-07 -.105131685104D+01  .353902578354D-07
     .948127253031D+00  .353593750000D+03 -.782723712156D-01 -.872857786602D-08
    -.125362364703D-09  .100000000000D+01  .165500000000D+04  .000000000000D+00
     .240000000000D+01  .000000000000D+00 -.102445483208D-07  .200000000000D+02
     .396006000000D+06  .400000000000D+01
16 11  9 29 16  0  0.0 -.200542155653D-03 -.216004991671D-11  .000000000000D+00
     .740000000000D+02  .306875000000D+02  .433768068181D-08  .312274598384D+01
     .169873237610D-05  .612778868526D-02  .103935599327D-04  .515352343750D+04
     .403200000000D+06 -.912696123123D-07  .109943578448D+01  .596046447754D-07
     .977497407891D+00  .187937500000D+03 -.707120427661D-01 -.774210820417D-08
     .767889128522D-09  .100000000000D+01  .165500000000D+04  .000000000000D+00
     .240000000000D+01  .000000000000D+00 -.977888703346D-08  .740000000000D+02
     .396006000000D+06  .400000000000D+01
17 11  9 29 16  0  0.0  .172988977283D-03 -.170530256582D-11  .000000000000D+00
     .760000000000D+02 -.204375000000D+02  .509021202776D-08  .225232787710D+01
    -.116787850857D-05  .661172764376D-02  .474229454994D-05  .515357196426D+04
     .403200000000D+06 -.143423676491D-06  .214185573977D+01 -.132247805595D-06
     .961523065147D+00  .290062500000D+03 -.240554419856D+01 -.829355974577D-08
    -.176078762959D-09  .100000000000D+01  .165500000000D+04  .000000000000D+00
     .240000000000D+01  .000000000000D+00 -.107102096081D-07  .760000000000D+02
     .396006000000D+06  .400000000000D+01
18 11  9 29 16  0  0.0  .159699935466D-03  .181898940355D-11  .000000000000D+00
     .920000000000D+02  .141718750000D+03  .494413451448D-08 -.257600186100D+01
     .734627246857D-05  .127601918066D-01  .675208866596D-05  .515363759804D+04
     .403200000000D+06  .502914190292D-07 -.206556031947D+01 -.819563865662D-07
     .931784980539D+00  .234937500000D+03 -.221142516598D+01 -.817819779762D-08
     .380015829185D-09  .100000000000D+01  .165500000000D+04  .000000000000D+00
     .240000000000D+01  .000000000000D+00 -.107102096081D-07  .920000000000D+02
     .396006000000D+06  .400000000000D+01
19 11  9 29 16  0  0.0 -.188997015357D-03 -.397903932026D-11  .000000000000D+00
     .940000000000D+02 -.272500000000D+02  .526450500205D-08  .152322230693D+01
    -.114366412163D-05  .761720689479D-02  .499747693539D-05  .515369285202D+04
     .403200000000D+06  .614672899246D-07  .219556388486D+01  .130385160446D-06
     .959028696195D+00  .280937500000D+03  .110556641334D+00 -.844070873226D-08
    -.408231290186D-09  .100000000000D+01  .165500000000D+04  .000000000000D+00
     .240000000000D+01  .000000000000D+00 -.144354999065D-07  .940000000000D+02
     .396006000000D+06  .400000000000D+01
20 11  9 29 16  0  0.0  .536339357495D-04  .568434188608D-12  .000000000000D+00
     .107000000000D+03  .152281250000D+03  .495592071970D-08 -.214233247112D+01
     .785104930401D-05  .457677966915D-02  .872835516930D-05  .515359184456D+04
     .403200000000D+06  .104308128357D-06 -.211943810162D+01 -.894069671631D-07
     .932097012188D+00  .197125000000D+03  .126182536887D+01 -.830677458193D-08
     .253224833545D-09  .100000000000D+01  .165500000000D+04  .000000000000D+00
     .240000000000D+01  .000000000000D+00 -.745058059692D-08  .107000000000D+03
     .396006000000D+06  .400000000000D+01
21 11  9 29 16  0  0.0 -.174661166966D-03 -.250111042988D-11  .000000000000D+00
     .460000000000D+02  .107187500000D+02  .492699094323D-08 -.147133886980D+01
     .355765223503D-06  .181334050139D-01  .118091702461D-04  .515371208763D+04
     .403200000000D+06  .448897480965D-06 -.311828859973D+01 -.409781932831D-07
     .932084540811D+00  .133906250000D+03 -.232754363460D+01 -.797211778499D-08
    -.519307345521D-09  .100000000000D+01  .165500000000D+04  .000000000000D+00
     .240000000000D+01  .000000000000D+00 -.116415321827D-07  .460000000000D+02
     .396006000000D+06  .400000000000D+01
22 11  9 29 16  0  0.0  .144218560308D-03 -.454747350886D-12  .000000000000D+00
     .530000000000D+02  .149531250000D+03  .500377985609D-08  .285533817287D+01
     .766664743423D-05  .590850447770D-02  .716373324394D-05  .515370890617D+04
     .403200000000D+06  .819563865662D-07 -.206168216168D+01  .428408384323D-07
     .929486434875D+00  .224031250000D+03 -.196830646183D+01 -.832713257278D-08
     .335013954676D-09  .100000000000D+01  .165500000000D+04  .000000000000D+00
     .240000000000D+01  .000000000000D+00 -.167638063431D-07  .530000000000D+02
     .396006000000D+06  .400000000000D+01
23 11  9 29 16  0  0.0  .272028148174D-03 -.306954461848D-11  .000000000000D+00
     .560000000000D+02 -.214375000000D+02  .480841457548D-08  .104503364130D+01
    -.104866921902D-05  .757468258962D-02  .771135091782D-06  .515372261620D+04
     .403200000000D+06 -.502914190292D-07 -.101912893017D+01  .208616256714D-06
     .962727154982D+00  .365125000000D+03 -.304978696181D+01 -.862893085818D-08
    -.135719938995D-09  .100000000000D+01  .165500000000D+04  .000000000000D+00
     .240000000000D+01  .000000000000D+00 -.200234353542D-07  .560000000000D+02
     .396006000000D+06  .400000000000D+01
24 11  9 29 16  0  0.0  .427921302617D-03  .318323145621D-11  .000000000000D+00
     .175000000000D+03  .656250000000D+00  .467698052930D-08  .440783768230D+00
    -.173225998878D-06  .670913350768D-02  .124853104353D-04  .515341968346D+04
     .403200000000D+06  .135973095894D-06 -.307151749660D+01 -.521540641785D-07
     .948664335609D+00  .128375000000D+03 -.176834103953D+00 -.807105047736D-08
    -.671813698023D-09  .100000000000D+01  .165500000000D+04  .000000000000D+00
     .340000000000D+01  .000000000000D+00 -.139698386192D-08  .175000000000D+03
     .396006000000D+06  .400000000000D+01
25 11  9 29 16  0  0.0  .210027210414D-04  .181898940355D-11  .000000000000D+00
     .150000000000D+02  .406562500000D+02  .459161983082D-08 -.230927314684D+01
     .205636024475D-05  .101302424446D-02  .995397567749D-05  .515358722687D+04
     .403200000000D+06 -.186264514923D-07  .105016432907D+01 -.167638063431D-07
     .965400128676D+00  .191187500000D+03  .991514543258D+00 -.800033324599D-08
     .700743474493D-09  .100000000000D+01  .165500000000D+04  .000000000000D+00
     .240000000000D+01  .000000000000D+00  .558793544769D-08  .150000000000D+02
     .396006000000D+06  .400000000000D+01
26 11  9 29 16  0  0.0 -.173570122570D-03 -.129602995003D-10  .000000000000D+00
     .260000000000D+02 -.337500000000D+02  .433518057767D-08  .861455957521D+00
    -.191852450371D-05  .203967586858D-01  .201351940632D-05  .515365318298D+04
     .403200000000D+06 -.212341547012D-06 -.951516875183D+00  .279396772385D-07
     .985767337921D+00  .357531250000D+03  .116129625123D+01 -.861607317975D-08
    -.294655130712D-09  .100000000000D+01  .165500000000D+04  .000000000000D+00
     .240000000000D+01  .000000000000D+00 -.605359673500D-08  .260000000000D+02
     .396006000000D+06  .400000000000D+01
